{
    "links": {
        "self": "http://www.neowsapp.com/rest/v1/neo/3791244?api_key=iIulBulltgU6a56xZRHN4H3l9WmuAYTsLGpBGhQ2"
    },
    "id": "3791244",
    "neo_reference_id": "3791244",
    "name": "(2017 XE1)",
    "designation": "2017 XE1",
    "nasa_jpl_url": "http://ssd.jpl.nasa.gov/sbdb.cgi?sstr=3791244",
    "absolute_magnitude_h": 25.8,
    "estimated_diameter": {
        "kilometers": {
            "estimated_diameter_min": 0.0183888672,
            "estimated_diameter_max": 0.0411187571
        },
        "meters": {
            "estimated_diameter_min": 18.388867207,
            "estimated_diameter_max": 41.1187571041
        },
        "miles": {
            "estimated_diameter_min": 0.0114263088,
            "estimated_diameter_max": 0.0255500032
        },
        "feet": {
            "estimated_diameter_min": 60.3309310875,
            "estimated_diameter_max": 134.9040630575
        }
    },
    "is_potentially_hazardous_asteroid": false,
    "close_approach_data": [
        {
            "close_approach_date": "1926-12-27",
            "close_approach_date_full": "1926-Dec-27 05:34",
            "epoch_date_close_approach": -1357410360000,
            "relative_velocity": {
                "kilometers_per_second": "34.8654686864",
                "kilometers_per_hour": "125515.6872709738",
                "miles_per_hour": "77990.566904567"
            },
            "miss_distance": {
                "astronomical": "0.494556177",
                "lunar": "192.382352853",
                "kilometers": "73984550.67454299",
                "miles": "45971868.045313662"
            },
            "orbiting_body": "Earth"
        },
        {
            "close_approach_date": "2017-12-04",
            "close_approach_date_full": "2017-Dec-04 13:47",
            "epoch_date_close_approach": 1512395220000,
            "relative_velocity": {
                "kilometers_per_second": "20.5813266725",
                "kilometers_per_hour": "74092.7760209528",
                "miles_per_hour": "46038.3696336859"
            },
            "miss_distance": {
                "astronomical": "0.0200751818",
                "lunar": "7.8092457202",
                "kilometers": "3003204.437142766",
                "miles": "1866104.7048155308"
            },
            "orbiting_body": "Earth"
        }
    ],
    "orbital_data": {
        "orbit_id": "2",
        "orbit_determination_date": "2017-12-15 06:26:32",
        "first_observation_date": "2017-12-08",
        "last_observation_date": "2017-12-13",
        "data_arc_in_days": 5,
        "observations_used": 24,
        "orbit_uncertainty": "9",
        "minimum_orbit_intersection": ".00115507",
        "jupiter_tisserand_invariant": "3.342",
        "epoch_osculation": "2458096.5",
        "eccentricity": ".6997196202409004",
        "semi_major_axis": "2.145982065726634",
        "inclination": ".4072700089107529",
        "ascending_node_longitude": "241.3030699114854",
        "orbital_period": "1148.252921713558",
        "perihelion_distance": ".6443963096526105",
        "perihelion_argument": "108.9447053678995",
        "aphelion_distance": "3.647567821800656",
        "perihelion_time": "2458047.480288305342",
        "mean_anomaly": "15.36864908102459",
        "mean_motion": ".3135197770389869",
        "equinox": "J2000",
        "orbit_class": {
            "orbit_class_type": "APO",
            "orbit_class_description": "Near-Earth asteroid orbits which cross the Earth’s orbit similar to that of 1862 Apollo",
            "orbit_class_range": "a (semi-major axis) > 1.0 AU; q (perihelion) < 1.017 AU"
        }
    },
    "is_sentry_object": false
}